start=new Date('2021-10-07T00:00:00.000Z').valueOf();
sats=[{"PERIOD":"95.593","OBJECT_TYPE":"PAYLOAD","SITE":"AFETR","TLE_LINE2":"2 48335  53.0581 150.9346 0001687  70.2667 289.8504 15.06392319 24646","MEAN_MOTION":"15.06392319","PERIAPSIS":"546.069","DECAY_DATE":null,"ECCENTRICITY":"0.00016870","TIME_SYSTEM":"UTC","RCS_SIZE":"LARGE","LAUNCH_DATE":"2021-04-29","TLE_LINE1":"1 48335U 21036BM  21279.84565410  .00000996  00000-0  85775-4 0  9999","MEAN_MOTION_DOT":"0.00000996","ARG_OF_PERICENTER":"70.2667","NORAD_CAT_ID":"48335","REF_FRAME":"TEME","OBJECT_ID":"2021-036BM","REV_AT_EPOCH":"2464","MEAN_ELEMENT_THEORY":"SGP4","MEAN_ANOMALY":"289.8504","FILE":"3148521","APOAPSIS":"548.405","GP_ID":"186424802","CENTER_NAME":"EARTH","COUNTRY_CODE":"US","MEAN_MOTION_DDOT":"0.0000000000000","OBJECT_NAME":"STARLINK-2441","EPHEMERIS_TYPE":"0","CLASSIFICATION_TYPE":"U","BSTAR":"0.00008577500000","EPOCH":"2021-10-06T20:17:44.514240","RA_OF_ASC_NODE":"150.9346","INCLINATION":"53.0581","SEMIMAJOR_AXIS":"6925.372","ELEMENT_SET_NO":"999"},{"RCS_SIZE":"LARGE","TLE_LINE1":"1 48353U 21038A   21279.78482795 -.00000504  00000-0 -14940-4 0  9991","LAUNCH_DATE":"2021-05-04","ARG_OF_PERICENTER":"97.5131","MEAN_MOTION_DOT":"-0.00000504","OBJECT_ID":"2021-038A","REF_FRAME":"TEME","NORAD_CAT_ID":"48353","MEAN_ELEMENT_THEORY":"SGP4","MEAN_ANOMALY":"262.6060","REV_AT_EPOCH":"2362","FILE":"3148521","SITE":"AFETR","OBJECT_TYPE":"PAYLOAD","PERIOD":"95.593","TLE_LINE2":"2 48353  53.0575  51.2137 0001783  97.5131 262.6060 15.06393068 23620","MEAN_MOTION":"15.06393068","PERIAPSIS":"546.000","DECAY_DATE":null,"TIME_SYSTEM":"UTC","ECCENTRICITY":"0.00017830","CLASSIFICATION_TYPE":"U","BSTAR":"-0.00001494000000","RA_OF_ASC_NODE":"51.2137","EPOCH":"2021-10-06T18:50:09.134880","INCLINATION":"53.0575","SEMIMAJOR_AXIS":"6925.370","ELEMENT_SET_NO":"999","GP_ID":"186425805","CENTER_NAME":"EARTH","APOAPSIS":"548.470","COUNTRY_CODE":"US","OBJECT_NAME":"STARLINK-2613","EPHEMERIS_TYPE":"0","MEAN_MOTION_DDOT":"0.0000000000000"},{"FILE":"3148521","MEAN_ELEMENT_THEORY":"SGP4","MEAN_ANOMALY":"263.9079","REV_AT_EPOCH":"2360","OBJECT_ID":"2021-038B","REF_FRAME":"TEME","NORAD_CAT_ID":"48354","ARG_OF_PERICENTER":"96.2101","MEAN_MOTION_DOT":"-0.00000542","TLE_LINE1":"1 48354U 21038B   21279.64844307 -.00000542  00000-0 -17505-4 0  9990","LAUNCH_DATE":"2021-05-04","RCS_SIZE":"LARGE","ECCENTRICITY":"0.00016690","TIME_SYSTEM":"UTC","DECAY_DATE":null,"PERIAPSIS":"546.074","TLE_LINE2":"2 48354  53.0563  51.8110 0001669  96.2101 263.9079 15.06394804 23602","MEAN_MOTION":"15.06394804","SITE":"AFETR","OBJECT_TYPE":"PAYLOAD","PERIOD":"95.592","ELEMENT_SET_NO":"999","SEMIMAJOR_AXIS":"6925.364","INCLINATION":"53.0563","EPOCH":"2021-10-06T15:33:45.481248","RA_OF_ASC_NODE":"51.8110","BSTAR":"-0.00001750500000","CLASSIFICATION_TYPE":"U","EPHEMERIS_TYPE":"0","OBJECT_NAME":"STARLINK-2674","MEAN_MOTION_DDOT":"0.0000000000000","COUNTRY_CODE":"US","GP_ID":"186426056","CENTER_NAME":"EARTH","APOAPSIS":"548.385"},{"OBJECT_NAME":"STARLINK-2635","EPHEMERIS_TYPE":"0","MEAN_MOTION_DDOT":"0.0000000000000","COUNTRY_CODE":"US","CENTER_NAME":"EARTH","GP_ID":"186424804","APOAPSIS":"548.544","ELEMENT_SET_NO":"999","INCLINATION":"53.0569","SEMIMAJOR_AXIS":"6925.378","RA_OF_ASC_NODE":"51.5355","EPOCH":"2021-10-06T17:03:59.884992","BSTAR":"-0.00003314100000","CLASSIFICATION_TYPE":"U","ECCENTRICITY":"0.00018780","TIME_SYSTEM":"UTC","DECAY_DATE":null,"PERIAPSIS":"545.943","MEAN_MOTION":"15.06390265","TLE_LINE2":"2 48355  53.0569  51.5355 0001878  92.0738 268.0466 15.06390265 23613","SITE":"AFETR","OBJECT_TYPE":"PAYLOAD","PERIOD":"95.593","FILE":"3148521","MEAN_ANOMALY":"268.0466","MEAN_ELEMENT_THEORY":"SGP4","REV_AT_EPOCH":"2361","OBJECT_ID":"2021-038C","NORAD_CAT_ID":"48355","REF_FRAME":"TEME","ARG_OF_PERICENTER":"92.0738","MEAN_MOTION_DOT":"-0.00000775","TLE_LINE1":"1 48355U 21038C   21279.71110978 -.00000775  00000-0 -33141-4 0  9991","LAUNCH_DATE":"2021-05-04","RCS_SIZE":"LARGE"},{"ELEMENT_SET_NO":"999","RA_OF_ASC_NODE":"51.7829","EPOCH":"2021-10-06T15:23:09.048480","SEMIMAJOR_AXIS":"6925.351","INCLINATION":"53.0679","BSTAR":"0.00010894000000","CLASSIFICATION_TYPE":"U","MEAN_MOTION_DDOT":"0.0000000000000","OBJECT_NAME":"STARLINK-2637","EPHEMERIS_TYPE":"0","COUNTRY_CODE":"US","APOAPSIS":"548.063","GP_ID":"186425054","CENTER_NAME":"EARTH","REV_AT_EPOCH":"2360","MEAN_ELEMENT_THEORY":"SGP4","MEAN_ANOMALY":"285.6669","FILE":"3148521","ARG_OF_PERICENTER":"74.4455","MEAN_MOTION_DOT":"0.00001342","NORAD_CAT_ID":"48356","REF_FRAME":"TEME","OBJECT_ID":"2021-038D","RCS_SIZE":"LARGE","LAUNCH_DATE":"2021-05-04","TLE_LINE1":"1 48356U 21038D   21279.64107695  .00001342  00000-0  10894-3 0  9994","TIME_SYSTEM":"UTC","ECCENTRICITY":"0.00012230","DECAY_DATE":null,"PERIAPSIS":"546.369","PERIOD":"95.592","SITE":"AFETR","OBJECT_TYPE":"PAYLOAD","MEAN_MOTION":"15.06399230","TLE_LINE2":"2 48356  53.0679  51.7829 0001223  74.4455 285.6669 15.06399230 23608"},{"BSTAR":"0.00011476000000","CLASSIFICATION_TYPE":"U","INCLINATION":"53.0561","SEMIMAJOR_AXIS":"6925.364","EPOCH":"2021-10-06T18:28:55.842528","RA_OF_ASC_NODE":"51.2651","ELEMENT_SET_NO":"999","GP_ID":"186425306","CENTER_NAME":"EARTH","APOAPSIS":"548.449","COUNTRY_CODE":"US","EPHEMERIS_TYPE":"0","OBJECT_NAME":"STARLINK-2636","MEAN_MOTION_DDOT":"0.0000000000000","TLE_LINE1":"1 48357U 21038E   21279.77009077  .00001428  00000-0  11476-3 0  9996","LAUNCH_DATE":"2021-05-04","RCS_SIZE":"LARGE","OBJECT_ID":"2021-038E","NORAD_CAT_ID":"48357","REF_FRAME":"TEME","ARG_OF_PERICENTER":"98.3145","MEAN_MOTION_DOT":"0.00001428","FILE":"3148521","MEAN_ELEMENT_THEORY":"SGP4","MEAN_ANOMALY":"261.8044","REV_AT_EPOCH":"2362","MEAN_MOTION":"15.06394993","TLE_LINE2":"2 48357  53.0561  51.2651 0001762  98.3145 261.8044 15.06394993 23622","SITE":"AFETR","OBJECT_TYPE":"PAYLOAD","PERIOD":"95.592","PERIAPSIS":"546.009","DECAY_DATE":null,"ECCENTRICITY":"0.00017620","TIME_SYSTEM":"UTC"},{"COUNTRY_CODE":"US","OBJECT_NAME":"STARLINK-2624","EPHEMERIS_TYPE":"0","MEAN_MOTION_DDOT":"0.0000000000000","GP_ID":"186425557","CENTER_NAME":"EARTH","APOAPSIS":"548.276","EPOCH":"2021-10-06T15:12:31.832928","RA_OF_ASC_NODE":"51.8929","INCLINATION":"53.0529","SEMIMAJOR_AXIS":"6925.340","ELEMENT_SET_NO":"999","CLASSIFICATION_TYPE":"U","BSTAR":"0.00014189000000","DECAY_DATE":null,"ECCENTRICITY":"0.00015470","TIME_SYSTEM":"UTC","OBJECT_TYPE":"PAYLOAD","SITE":"AFETR","PERIOD":"95.592","TLE_LINE2":"2 48358  53.0529  51.8929 0001547  95.9235 264.1930 15.06402770 23594","MEAN_MOTION":"15.06402770","PERIAPSIS":"546.134","MEAN_MOTION_DOT":"0.00001833","ARG_OF_PERICENTER":"95.9235","OBJECT_ID":"2021-038F","NORAD_CAT_ID":"48358","REF_FRAME":"TEME","MEAN_ELEMENT_THEORY":"SGP4","MEAN_ANOMALY":"264.1930","REV_AT_EPOCH":"2359","FILE":"3148521","RCS_SIZE":"LARGE","TLE_LINE1":"1 48358U 21038F   21279.63370177  .00001833  00000-0  14189-3 0  9998","LAUNCH_DATE":"2021-05-04"},{"CLASSIFICATION_TYPE":"U","BSTAR":"0.00010357000000","ELEMENT_SET_NO":"999","EPOCH":"2021-10-06T18:18:18.495648","RA_OF_ASC_NODE":"51.2960","SEMIMAJOR_AXIS":"6925.363","INCLINATION":"53.0564","APOAPSIS":"548.194","CENTER_NAME":"EARTH","GP_ID":"186424305","MEAN_MOTION_DDOT":"0.0000000000000","EPHEMERIS_TYPE":"0","OBJECT_NAME":"STARLINK-2628","COUNTRY_CODE":"US","RCS_SIZE":"LARGE","LAUNCH_DATE":"2021-05-04","TLE_LINE1":"1 48359U 21038G   21279.76271407  .00001261  00000-0  10357-3 0  9997","REV_AT_EPOCH":"2361","MEAN_ELEMENT_THEORY":"SGP4","MEAN_ANOMALY":"255.0886","FILE":"3148521","MEAN_MOTION_DOT":"0.00001261","ARG_OF_PERICENTER":"105.0258","NORAD_CAT_ID":"48359","REF_FRAME":"TEME","OBJECT_ID":"2021-038G","PERIAPSIS":"546.262","PERIOD":"95.592","SITE":"AFETR","OBJECT_TYPE":"PAYLOAD","TLE_LINE2":"2 48359  53.0564  51.2960 0001395 105.0258 255.0886 15.06395262 23611","MEAN_MOTION":"15.06395262","TIME_SYSTEM":"UTC","ECCENTRICITY":"0.00013950","DECAY_DATE":null},{"MEAN_MOTION_DOT":"0.00000796","ARG_OF_PERICENTER":"88.9260","REF_FRAME":"TEME","NORAD_CAT_ID":"48360","OBJECT_ID":"2021-038H","REV_AT_EPOCH":"2361","MEAN_ELEMENT_THEORY":"SGP4","MEAN_ANOMALY":"271.1918","FILE":"3148521","RCS_SIZE":"LARGE","LAUNCH_DATE":"2021-05-04","TLE_LINE1":"1 48360U 21038H   21279.75902997  .00000796  00000-0  72362-4 0  9990","DECAY_DATE":null,"ECCENTRICITY":"0.00016480","TIME_SYSTEM":"UTC","PERIOD":"95.592","OBJECT_TYPE":"PAYLOAD","SITE":"AFETR","TLE_LINE2":"2 48360  53.0554  51.3077 0001648  88.9260 271.1918 15.06398929 23613","MEAN_MOTION":"15.06398929","PERIAPSIS":"546.076","RA_OF_ASC_NODE":"51.3077","EPOCH":"2021-10-06T18:13:00.189408","INCLINATION":"53.0554","SEMIMAJOR_AXIS":"6925.352","ELEMENT_SET_NO":"999","CLASSIFICATION_TYPE":"U","BSTAR":"0.00007236200000","COUNTRY_CODE":"US","MEAN_MOTION_DDOT":"0.0000000000000","EPHEMERIS_TYPE":"0","OBJECT_NAME":"STARLINK-2622","APOAPSIS":"548.358","CENTER_NAME":"EARTH","GP_ID":"186424555"},{"ECCENTRICITY":"0.00011720","TIME_SYSTEM":"UTC","DECAY_DATE":null,"PERIAPSIS":"546.425","MEAN_MOTION":"15.06392342","TLE_LINE2":"2 48361  53.0551  51.4112 0001172 105.2617 254.8501 15.06392342 23612","SITE":"AFETR","OBJECT_TYPE":"PAYLOAD","PERIOD":"95.593","FILE":"3148521","MEAN_ANOMALY":"254.8501","MEAN_ELEMENT_THEORY":"SGP4","REV_AT_EPOCH":"2361","OBJECT_ID":"2021-038J","REF_FRAME":"TEME","NORAD_CAT_ID":"48361","MEAN_MOTION_DOT":"-0.00000215","ARG_OF_PERICENTER":"105.2617","TLE_LINE1":"1 48361U 21038J   21279.75534718 -.00000215  00000-0  44218-5 0  9990","LAUNCH_DATE":"2021-05-04","RCS_SIZE":"LARGE","EPHEMERIS_TYPE":"0","OBJECT_NAME":"STARLINK-2591","MEAN_MOTION_DDOT":"0.0000000000000","COUNTRY_CODE":"US","CENTER_NAME":"EARTH","GP_ID":"186425806","APOAPSIS":"548.049","ELEMENT_SET_NO":"999","INCLINATION":"53.0551","SEMIMAJOR_AXIS":"6925.372","EPOCH":"2021-10-06T18:07:41.996352","RA_OF_ASC_NODE":"51.4112","CLASSIFICATION_TYPE":"U","BSTAR":"0.00000442180000"}];
